start=new Date('2022-01-11T00:00:00.000Z').valueOf();
sats=[{"ELEMENT_SET_NO":"999","APOAPSIS":"548.416","COUNTRY_CODE":"US","LAUNCH_DATE":"2020-02-17","EPOCH":"2022-01-10T15:25:33.024576","TIME_SYSTEM":"UTC","EPHEMERIS_TYPE":"0","ECCENTRICITY":"0.00017390","DECAY_DATE":null,"SEMIMAJOR_AXIS":"6925.347","REV_AT_EPOCH":"10644","NORAD_CAT_ID":"45221","MEAN_ELEMENT_THEORY":"SGP4","ARG_OF_PERICENTER":"60.4526","CENTER_NAME":"EARTH","MEAN_MOTION":"15.06400457","RA_OF_ASC_NODE":"345.8916","CLASSIFICATION_TYPE":"U","RCS_SIZE":"LARGE","OBJECT_NAME":"STARLINK-1189","BSTAR":"0.00004107300000","TLE_LINE1":"1 45221U 20012AV  22010.64274334  .00000330  00000-0  41073-4 0  9992","OBJECT_TYPE":"PAYLOAD","REF_FRAME":"TEME","FILE":"3269118","MEAN_MOTION_DDOT":"0.0000000000000","MEAN_MOTION_DOT":"0.00000330","INCLINATION":"53.0573","PERIAPSIS":"546.008","OBJECT_ID":"2020-012AV","GP_ID":"193623871","SITE":"AFETR","MEAN_ANOMALY":"299.6636","PERIOD":"95.592","TLE_LINE2":"2 45221  53.0573 345.8916 0001739  60.4526 299.6636 15.06400457106446"},{"GP_ID":"193624121","SITE":"AFETR","TLE_LINE2":"2 45222  53.0543 345.8645 0001817  65.2510 294.8668 15.06400545106446","PERIOD":"95.592","MEAN_ANOMALY":"294.8668","MEAN_MOTION_DOT":"0.00001802","INCLINATION":"53.0543","PERIAPSIS":"545.954","OBJECT_ID":"2020-012AW","OBJECT_TYPE":"PAYLOAD","REF_FRAME":"TEME","FILE":"3269118","MEAN_MOTION_DDOT":"0.0000000000000","RCS_SIZE":"LARGE","OBJECT_NAME":"STARLINK-1191","TLE_LINE1":"1 45222U 20012AW  22010.65011439  .00001802  00000-0  13983-3 0  9992","BSTAR":"0.00013983000000","CLASSIFICATION_TYPE":"U","ARG_OF_PERICENTER":"65.2510","MEAN_MOTION":"15.06400545","CENTER_NAME":"EARTH","RA_OF_ASC_NODE":"345.8645","TIME_SYSTEM":"UTC","SEMIMAJOR_AXIS":"6925.347","DECAY_DATE":null,"ECCENTRICITY":"0.00018170","REV_AT_EPOCH":"10644","EPHEMERIS_TYPE":"0","MEAN_ELEMENT_THEORY":"SGP4","NORAD_CAT_ID":"45222","COUNTRY_CODE":"US","APOAPSIS":"548.470","ELEMENT_SET_NO":"999","LAUNCH_DATE":"2020-02-17","EPOCH":"2022-01-10T15:36:09.883296"},{"RA_OF_ASC_NODE":"345.4666","CENTER_NAME":"EARTH","MEAN_MOTION":"15.06406931","ARG_OF_PERICENTER":"62.8697","CLASSIFICATION_TYPE":"U","EPOCH":"2022-01-10T17:43:32.151648","LAUNCH_DATE":"2020-02-17","ELEMENT_SET_NO":"999","APOAPSIS":"548.221","COUNTRY_CODE":"US","NORAD_CAT_ID":"45223","MEAN_ELEMENT_THEORY":"SGP4","EPHEMERIS_TYPE":"0","REV_AT_EPOCH":"10646","DECAY_DATE":null,"SEMIMAJOR_AXIS":"6925.327","ECCENTRICITY":"0.00014860","TIME_SYSTEM":"UTC","OBJECT_ID":"2020-012AX","PERIAPSIS":"546.163","MEAN_MOTION_DOT":"0.00002135","INCLINATION":"53.0558","MEAN_ANOMALY":"297.2444","TLE_LINE2":"2 45223  53.0558 345.4666 0001486  62.8697 297.2444 15.06406931106469","PERIOD":"95.592","SITE":"AFETR","GP_ID":"193622371","BSTAR":"0.00016214000000","TLE_LINE1":"1 45223U 20012AX  22010.73856657  .00002135  00000-0  16214-3 0  9991","OBJECT_NAME":"STARLINK-1212","RCS_SIZE":"LARGE","MEAN_MOTION_DDOT":"0.0000000000000","FILE":"3269118","REF_FRAME":"TEME","OBJECT_TYPE":"PAYLOAD"},{"MEAN_ANOMALY":"339.4428","TLE_LINE2":"2 45224  53.0489 244.6049 0002676  20.6699 339.4428 15.76717876107769","PERIOD":"91.329","GP_ID":"193623120","SITE":"AFETR","OBJECT_ID":"2020-012AY","PERIAPSIS":"337.951","INCLINATION":"53.0489","MEAN_MOTION_DOT":"-0.00008794","MEAN_MOTION_DDOT":"0.0000000000000","FILE":"3269118","REF_FRAME":"TEME","OBJECT_TYPE":"PAYLOAD","TLE_LINE1":"1 45224U 20012AY  22010.84385638 -.00008794  00000-0 -49775-4 0  9998","BSTAR":"-0.00004977500000","OBJECT_NAME":"STARLINK-1214","RCS_SIZE":"LARGE","CLASSIFICATION_TYPE":"U","RA_OF_ASC_NODE":"244.6049","CENTER_NAME":"EARTH","MEAN_MOTION":"15.76717876","ARG_OF_PERICENTER":"20.6699","MEAN_ELEMENT_THEORY":"SGP4","NORAD_CAT_ID":"45224","EPHEMERIS_TYPE":"0","DECAY_DATE":null,"SEMIMAJOR_AXIS":"6717.884","REV_AT_EPOCH":"10776","ECCENTRICITY":"0.00026760","TIME_SYSTEM":"UTC","EPOCH":"2022-01-10T20:15:09.191232","LAUNCH_DATE":"2020-02-17","ELEMENT_SET_NO":"999","COUNTRY_CODE":"US","APOAPSIS":"341.547"},{"RCS_SIZE":"LARGE","TLE_LINE1":"1 45225U 20012AZ  22010.62431287  .00000451  00000-0  49208-4 0  9998","BSTAR":"0.00004920800000","OBJECT_NAME":"STARLINK-1215","REF_FRAME":"TEME","OBJECT_TYPE":"PAYLOAD","MEAN_MOTION_DDOT":"0.0000000000000","FILE":"3269118","PERIAPSIS":"546.010","INCLINATION":"53.0559","MEAN_MOTION_DOT":"0.00000451","OBJECT_ID":"2020-012AZ","GP_ID":"193623372","SITE":"AFETR","MEAN_ANOMALY":"290.9206","PERIOD":"95.592","TLE_LINE2":"2 45225  53.0559 345.9586 0001728  69.1968 290.9206 15.06402299106399","LAUNCH_DATE":"2020-02-17","ELEMENT_SET_NO":"999","COUNTRY_CODE":"US","APOAPSIS":"548.403","EPOCH":"2022-01-10T14:59:00.631968","EPHEMERIS_TYPE":"0","REV_AT_EPOCH":"10639","DECAY_DATE":null,"SEMIMAJOR_AXIS":"6925.342","ECCENTRICITY":"0.00017280","TIME_SYSTEM":"UTC","NORAD_CAT_ID":"45225","MEAN_ELEMENT_THEORY":"SGP4","ARG_OF_PERICENTER":"69.1968","RA_OF_ASC_NODE":"345.9586","CENTER_NAME":"EARTH","MEAN_MOTION":"15.06402299","CLASSIFICATION_TYPE":"U"},{"MEAN_MOTION":"15.07595246","CENTER_NAME":"EARTH","RA_OF_ASC_NODE":"347.1170","ARG_OF_PERICENTER":"143.7729","CLASSIFICATION_TYPE":"U","EPOCH":"2022-01-10T08:46:03.323136","COUNTRY_CODE":"US","APOAPSIS":"548.913","ELEMENT_SET_NO":"999","LAUNCH_DATE":"2020-02-17","NORAD_CAT_ID":"45226","MEAN_ELEMENT_THEORY":"SGP4","TIME_SYSTEM":"UTC","REV_AT_EPOCH":"10631","DECAY_DATE":null,"SEMIMAJOR_AXIS":"6921.688","ECCENTRICITY":"0.00077440","EPHEMERIS_TYPE":"0","OBJECT_ID":"2020-012BA","MEAN_MOTION_DOT":"0.00171433","INCLINATION":"53.0556","PERIAPSIS":"538.193","PERIOD":"95.516","TLE_LINE2":"2 45226  53.0556 347.1170 0007744 143.7729 216.3786 15.07595246106311","MEAN_ANOMALY":"216.3786","SITE":"AFETR","GP_ID":"193593714","OBJECT_NAME":"STARLINK-1217","BSTAR":"0.01088900000000","TLE_LINE1":"1 45226U 20012BA  22010.36531624  .00171433  00000-0  10889-1 0  9995","RCS_SIZE":"LARGE","FILE":"3268856","MEAN_MOTION_DDOT":"0.0000000000000","OBJECT_TYPE":"PAYLOAD","REF_FRAME":"TEME"},{"INCLINATION":"53.0548","MEAN_MOTION_DOT":"0.00001773","PERIAPSIS":"546.046","OBJECT_ID":"2020-012BB","GP_ID":"193622871","SITE":"AFETR","TLE_LINE2":"2 45227  53.0548 345.8373 0001682  66.9911 293.1255 15.06400947106368","PERIOD":"95.592","MEAN_ANOMALY":"293.1255","RCS_SIZE":"LARGE","OBJECT_NAME":"STARLINK-1221","TLE_LINE1":"1 45227U 20012BB  22010.65379695  .00001773  00000-0  13791-3 0  9992","BSTAR":"0.00013791000000","OBJECT_TYPE":"PAYLOAD","REF_FRAME":"TEME","FILE":"3269118","MEAN_MOTION_DDOT":"0.0000000000000","ARG_OF_PERICENTER":"66.9911","MEAN_MOTION":"15.06400947","CENTER_NAME":"EARTH","RA_OF_ASC_NODE":"345.8373","CLASSIFICATION_TYPE":"U","APOAPSIS":"548.375","COUNTRY_CODE":"US","ELEMENT_SET_NO":"999","LAUNCH_DATE":"2020-02-17","EPOCH":"2022-01-10T15:41:28.056480","TIME_SYSTEM":"UTC","ECCENTRICITY":"0.00016820","DECAY_DATE":null,"SEMIMAJOR_AXIS":"6925.346","REV_AT_EPOCH":"10636","EPHEMERIS_TYPE":"0","NORAD_CAT_ID":"45227","MEAN_ELEMENT_THEORY":"SGP4"},{"NORAD_CAT_ID":"45228","MEAN_ELEMENT_THEORY":"SGP4","TIME_SYSTEM":"UTC","DECAY_DATE":null,"REV_AT_EPOCH":"10634","SEMIMAJOR_AXIS":"6925.339","ECCENTRICITY":"0.00016340","EPHEMERIS_TYPE":"0","EPOCH":"2022-01-10T17:22:18.758208","APOAPSIS":"548.336","COUNTRY_CODE":"US","ELEMENT_SET_NO":"999","LAUNCH_DATE":"2020-02-17","CLASSIFICATION_TYPE":"U","MEAN_MOTION":"15.06403074","CENTER_NAME":"EARTH","RA_OF_ASC_NODE":"345.5150","ARG_OF_PERICENTER":"65.8096","FILE":"3269118","MEAN_MOTION_DDOT":"0.0000000000000","OBJECT_TYPE":"PAYLOAD","REF_FRAME":"TEME","OBJECT_NAME":"STARLINK-1222","BSTAR":"0.00001712000000","TLE_LINE1":"1 45228U 20012BC  22010.72382822 -.00000027  00000-0  17120-4 0  9990","RCS_SIZE":"LARGE","TLE_LINE2":"2 45228  53.0558 345.5150 0001634  65.8096 294.3063 15.06403074106341","PERIOD":"95.592","MEAN_ANOMALY":"294.3063","SITE":"AFETR","GP_ID":"193622621","OBJECT_ID":"2020-012BC","INCLINATION":"53.0558","MEAN_MOTION_DOT":"-0.00000027","PERIAPSIS":"546.073"},{"MEAN_ANOMALY":"294.3680","PERIOD":"95.592","TLE_LINE2":"2 45229  53.0569 345.9822 0001965  65.7514 294.3680 15.06406510106337","GP_ID":"193623872","SITE":"AFETR","OBJECT_ID":"2020-012BD","PERIAPSIS":"545.833","INCLINATION":"53.0569","MEAN_MOTION_DOT":"0.00002066","MEAN_MOTION_DDOT":"0.0000000000000","FILE":"3269118","REF_FRAME":"TEME","OBJECT_TYPE":"PAYLOAD","TLE_LINE1":"1 45229U 20012BD  22010.62062233  .00002066  00000-0  15753-3 0  9994","BSTAR":"0.00015753000000","OBJECT_NAME":"STARLINK-1226","RCS_SIZE":"LARGE","CLASSIFICATION_TYPE":"U","RA_OF_ASC_NODE":"345.9822","CENTER_NAME":"EARTH","MEAN_MOTION":"15.06406510","ARG_OF_PERICENTER":"65.7514","NORAD_CAT_ID":"45229","MEAN_ELEMENT_THEORY":"SGP4","EPHEMERIS_TYPE":"0","DECAY_DATE":null,"SEMIMAJOR_AXIS":"6925.329","REV_AT_EPOCH":"10633","ECCENTRICITY":"0.00019650","TIME_SYSTEM":"UTC","EPOCH":"2022-01-10T14:53:41.769312","LAUNCH_DATE":"2020-02-17","ELEMENT_SET_NO":"999","COUNTRY_CODE":"US","APOAPSIS":"548.554"},{"MEAN_ELEMENT_THEORY":"SGP4","NORAD_CAT_ID":"45230","TIME_SYSTEM":"UTC","EPHEMERIS_TYPE":"0","DECAY_DATE":null,"REV_AT_EPOCH":"10645","SEMIMAJOR_AXIS":"6925.333","ECCENTRICITY":"0.00016970","EPOCH":"2022-01-10T14:48:23.450112","ELEMENT_SET_NO":"999","APOAPSIS":"548.373","COUNTRY_CODE":"US","LAUNCH_DATE":"2020-02-17","CLASSIFICATION_TYPE":"U","CENTER_NAME":"EARTH","MEAN_MOTION":"15.06405178","RA_OF_ASC_NODE":"345.9969","ARG_OF_PERICENTER":"67.2928","FILE":"3269118","MEAN_MOTION_DDOT":"0.0000000000000","OBJECT_TYPE":"PAYLOAD","REF_FRAME":"TEME","OBJECT_NAME":"STARLINK-1227","TLE_LINE1":"1 45230U 20012BE  22010.61693808  .00000249  00000-0  35648-4 0  9990","BSTAR":"0.00003564800000","RCS_SIZE":"LARGE","MEAN_ANOMALY":"292.8240","TLE_LINE2":"2 45230  53.0559 345.9969 0001697  67.2928 292.8240 15.06405178106455","PERIOD":"95.592","GP_ID":"193624122","SITE":"AFETR","OBJECT_ID":"2020-012BE","MEAN_MOTION_DOT":"0.00000249","INCLINATION":"53.0559","PERIAPSIS":"546.022"}];
